[{"OBJECT_NAME":"STARLINK-11402 [DTC]","OBJECT_ID":"2024-204A","EPOCH":"2026-03-09T01:49:48.553824","MEAN_MOTION":15.69693275,"ECCENTRICITY":0.0001223,"INCLINATION":53.1577,"RA_OF_ASC_NODE":359.6458,"ARG_OF_PERICENTER":99.7178,"MEAN_ANOMALY":260.3978,"EPHEMERIS_TYPE":0,"CLASSIFICATION_TYPE":"U","NORAD_CAT_ID":61874,"ELEMENT_SET_NO":999,"REV_AT_EPOCH":7740,"BSTAR":-1.0591178e-5,"MEAN_MOTION_DOT":-1.871e-5,"MEAN_MOTION_DDOT":0},{"OBJECT_NAME":"CZ-2D DEB","OBJECT_ID":"2005-024K","EPOCH":"2026-03-07T20:58:14.771712","MEAN_MOTION":15.70813446,"ECCENTRICITY":0.0005756,"INCLINATION":97.1809,"RA_OF_ASC_NODE":100.1703,"ARG_OF_PERICENTER":144.4044,"MEAN_ANOMALY":215.7604,"EPHEMERIS_TYPE":0,"CLASSIFICATION_TYPE":"U","NORAD_CAT_ID":35271,"ELEMENT_SET_NO":999,"REV_AT_EPOCH":8871,"BSTAR":0.00070506615,"MEAN_MOTION_DOT":0.00088213,"MEAN_MOTION_DDOT":0}]
